{
    "links": {
        "self": "http://www.neowsapp.com/rest/v1/neo/54016331?api_key=iIulBulltgU6a56xZRHN4H3l9WmuAYTsLGpBGhQ2"
    },
    "id": "54016331",
    "neo_reference_id": "54016331",
    "name": "(2020 FS3)",
    "designation": "2020 FS3",
    "nasa_jpl_url": "http://ssd.jpl.nasa.gov/sbdb.cgi?sstr=54016331",
    "absolute_magnitude_h": 23.643,
    "estimated_diameter": {
        "kilometers": {
            "estimated_diameter_min": 0.0496540842,
            "estimated_diameter_max": 0.1110299077
        },
        "meters": {
            "estimated_diameter_min": 49.6540842296,
            "estimated_diameter_max": 111.029907698
        },
        "miles": {
            "estimated_diameter_min": 0.030853608,
            "estimated_diameter_max": 0.0689907648
        },
        "feet": {
            "estimated_diameter_min": 162.907105704,
            "estimated_diameter_max": 364.2713623718
        }
    },
    "is_potentially_hazardous_asteroid": false,
    "close_approach_data": [
        {
            "close_approach_date": "2020-03-29",
            "close_approach_date_full": "2020-Mar-29 00:35",
            "epoch_date_close_approach": 1585442100000,
            "relative_velocity": {
                "kilometers_per_second": "15.8386581795",
                "kilometers_per_hour": "57019.169446366",
                "miles_per_hour": "35429.4944818267"
            },
            "miss_distance": {
                "astronomical": "0.052792104",
                "lunar": "20.536128456",
                "kilometers": "7897586.31121848",
                "miles": "4907332.577755824"
            },
            "orbiting_body": "Earth"
        }
    ],
    "orbital_data": {
        "orbit_id": "6",
        "orbit_determination_date": "2020-04-02 06:06:07",
        "first_observation_date": "2020-03-23",
        "last_observation_date": "2020-04-01",
        "data_arc_in_days": 9,
        "observations_used": 105,
        "orbit_uncertainty": "8",
        "minimum_orbit_intersection": ".0522182",
        "jupiter_tisserand_invariant": "2.764",
        "epoch_osculation": "2458932.5",
        "eccentricity": ".6912138362513264",
        "semi_major_axis": "3.043467475617238",
        "inclination": "17.43378100818735",
        "ascending_node_longitude": "1.068380632967961",
        "orbital_period": "1939.328698789573",
        "perihelion_distance": ".9397806462897067",
        "perihelion_argument": "226.1961961711216",
        "aphelion_distance": "5.147154304944769",
        "perihelion_time": "2458966.998061806664",
        "mean_anomaly": "353.5960818513383",
        "mean_motion": ".1856312445768957",
        "equinox": "J2000",
        "orbit_class": {
            "orbit_class_type": "APO",
            "orbit_class_description": "Near-Earth asteroid orbits which cross the Earth’s orbit similar to that of 1862 Apollo",
            "orbit_class_range": "a (semi-major axis) > 1.0 AU; q (perihelion) < 1.017 AU"
        }
    },
    "is_sentry_object": false
}